     2.100          NAVIGATION                              RINEX VERSION / TYPE
fic2rin                                 02/24/2015 00:33:11 PGM / RUN BY / DATE
                                                            END OF HEADER
29 15  2 23 14  0  0.0  .593891832978D-03  .227373675443D-11  .000000000000D+00
     .330000000000D+02  .200625000000D+02  .435696719946D-08 -.204061139271D+01
     .114925205708D-05  .132041377947D-02  .729970633984D-05  .515354961205D+04
     .136800000000D+06 -.558793544769D-08 -.129747084395D+01 -.149011611938D-07
     .972021332476D+00  .245375000000D+03 -.832896597212D+00 -.803712049261D-08
     .496806408267D-09  .100000000000D+01  .183300000000D+04  .000000000000D+00
     .240000000000D+01  .000000000000D+00 -.977888703346D-08  .330000000000D+02
     .129606000000D+06  .400000000000D+01
31 15  2 23 14  0  0.0  .322644133121D-03 -.909494701773D-12  .000000000000D+00
     .520000000000D+02 -.330937500000D+02  .434446667876D-08 -.147848888484D+01
    -.175647437572D-05  .827640667558D-02  .514090061188D-05  .515373512840D+04
     .136800000000D+06 -.614672899246D-07  .287027650629D+01 -.100582838058D-06
     .976222831737D+00  .291500000000D+03 -.544384522292D+00 -.826141554969D-08
    -.232152527227D-09  .100000000000D+01  .183300000000D+04  .000000000000D+00
     .240000000000D+01  .000000000000D+00 -.135041773319D-07  .520000000000D+02
     .129606000000D+06  .400000000000D+01
32 15  2 23 14  0  0.0 -.216752290726D-03  .920863385545D-11  .000000000000D+00
     .320000000000D+02  .289062500000D+02  .490556147918D-08 -.869366182328D+00
     .143982470036D-05  .113141889451D-01  .110995024443D-04  .515357521820D+04
     .136800000000D+06  .171363353729D-06  .825955772145D+00 -.147148966789D-06
     .947224398510D+00  .161093750000D+03  .235294719827D-01 -.816284001505D-08
    -.750031241812D-11  .100000000000D+01  .183300000000D+04  .000000000000D+00
     .240000000000D+01  .000000000000D+00 -.372529029846D-08  .320000000000D+02
     .129606000000D+06  .400000000000D+01
13 15  2 23 13 59 44.0 -.908719375730D-04 -.352429196937D-11  .000000000000D+00
     .120000000000D+02  .837500000000D+02  .445768568050D-08 -.610427111951D+00
     .446848571301D-05  .535321165808D-02  .667572021484D-05  .515368792152D+04
     .136784000000D+06 -.130385160446D-07  .190090004924D+01 -.614672899246D-07
     .974598043235D+00  .256187500000D+03  .206382432579D+01 -.826641575797D-08
     .207151485834D-09  .100000000000D+01  .183300000000D+04  .000000000000D+00
     .240000000000D+01  .000000000000D+00 -.116415321827D-07  .120000000000D+02
     .131886000000D+06  .400000000000D+01
 5 15  2 23 13 59 44.0 -.275244470686D-03  .500222085975D-11  .000000000000D+00
     .000000000000D+00 -.234375000000D+01  .484948771491D-08  .214483134440D+01
    -.484287738800D-07  .403085502330D-02  .120457261801D-04  .515378148842D+04
     .136784000000D+06 -.111758708954D-06  .737111399603D+00 -.111758708954D-07
     .946831193925D+00  .141687500000D+03  .419325333280D+00 -.808997983728D-08
    -.238581366443D-09  .100000000000D+01  .183300000000D+04  .000000000000D+00
     .240000000000D+01  .000000000000D+00 -.107102096081D-07  .000000000000D+00
     .135666000000D+06  .400000000000D+01
12 15  2 23 13 59 44.0  .271607656032D-03  .295585778076D-11  .000000000000D+00
     .200000000000D+01 -.442187500000D+02  .359657838335D-08 -.182859275136D+01
    -.228546559811D-05  .532749819104D-02  .103525817394D-04  .515373359299D+04
     .136784000000D+06 -.409781932831D-07 -.235361273237D+01 -.137835741043D-06
     .989381248820D+00  .195625000000D+03  .515412016362D+00 -.755567186692D-08
     .560737642688D-10  .100000000000D+01  .183300000000D+04  .000000000000D+00
     .240000000000D+01  .000000000000D+00 -.125728547573D-07  .200000000000D+01
     .136656000000D+06  .400000000000D+01
 5 15  2 23 15 59 44.0 -.275208149105D-03  .500222085975D-11  .000000000000D+00
     .100000000000D+01  .600000000000D+01  .483341561688D-08 -.308809028256D+01
     .271946191788D-06  .403079891112D-02  .120159238577D-04  .515378108978D+04
     .143984000000D+06 -.484287738800D-07  .737053383198D+00 -.838190317154D-07
     .946829868522D+00  .140875000000D+03  .419179906057D+00 -.801819113270D-08
    -.221080637467D-09  .100000000000D+01  .183300000000D+04  .000000000000D+00
     .240000000000D+01  .000000000000D+00 -.107102096081D-07  .100000000000D+01
     .136806000000D+06  .400000000000D+01
12 15  2 23 15 59 44.0  .271629076451D-03  .295585778076D-11  .000000000000D+00
     .600000000000D+01 -.528437500000D+02  .367622455808D-08 -.778221913849D+00
    -.277347862720D-05  .532752473373D-02  .105574727058D-04  .515373587418D+04
     .143984000000D+06  .160187482834D-06 -.235366673452D+01  .484287738800D-07
     .989380385699D+00  .191062500000D+03  .515177418430D+00 -.774460830831D-08
    -.105004373854D-09  .100000000000D+01  .183300000000D+04  .000000000000D+00
     .240000000000D+01  .000000000000D+00 -.125728547573D-07  .600000000000D+01
     .136806000000D+06  .400000000000D+01
13 15  2 23 15 59 44.0 -.908970832825D-04 -.352429196937D-11  .000000000000D+00
     .130000000000D+02  .915312500000D+02  .454518932538D-08  .439753347252D+00
     .470131635666D-05  .535199686419D-02  .657886266708D-05  .515368563271D+04
     .143984000000D+06 -.372529029846D-08  .190084053919D+01 -.633299350739D-07
     .974599520782D+00  .260531250000D+03  .206381643774D+01 -.826820154664D-08
     .203579908492D-09  .100000000000D+01  .183300000000D+04  .000000000000D+00
     .240000000000D+01  .000000000000D+00 -.116415321827D-07  .130000000000D+02
     .136806000000D+06  .400000000000D+01
 1 15  2 23 16  0  0.0 -.868365168571D-05  .454747350886D-12  .000000000000D+00
     .530000000000D+02 -.473125000000D+02  .485448792319D-08  .272308721128D+00
    -.246614217758D-05  .389289995655D-02  .621750950813D-05  .515366704941D+04
     .144000000000D+06  .372529029846D-07 -.297234908296D+00 -.186264514923D-07
     .962182825108D+00  .262093750000D+03  .400074794275D+00 -.833213278106D-08
    -.167506977338D-09  .100000000000D+01  .183300000000D+04  .000000000000D+00
     .240000000000D+01  .000000000000D+00  .558793544769D-08  .530000000000D+02
     .136806000000D+06  .400000000000D+01
 2 15  2 23 16  0  0.0  .549725722522D-03  .227373675443D-11  .000000000000D+00
     .210000000000D+02 -.347812500000D+02  .544844123516D-08  .843296271177D+00
    -.186823308468D-05  .144225094700D-01  .616535544395D-05  .515376557541D+04
     .144000000000D+06 -.178813934326D-06 -.332761019506D+00  .122934579849D-06
     .940768565895D+00  .251125000000D+03 -.231430203745D+01 -.873214944336D-08
    -.249296098469D-09  .100000000000D+01  .183300000000D+04  .000000000000D+00
     .240000000000D+01  .000000000000D+00 -.204890966415D-07  .210000000000D+02
     .136806000000D+06  .400000000000D+01
 3 15  2 23 16  0  0.0  .224591698498D-03  .196678229258D-10  .000000000000D+00
     .580000000000D+02  .831250000000D+01  .453661753976D-08  .256529585053D+01
     .430271029472D-06  .947647844441D-03  .115223228931D-04  .515374674606D+04
     .144000000000D+06 -.931322574615D-08  .742867018182D+00  .242143869400D-07
     .959559156142D+00  .160218750000D+03 -.295463057321D+01 -.793568769610D-08
    -.111076055335D-09  .100000000000D+01  .183300000000D+04  .000000000000D+00
     .240000000000D+01  .000000000000D+00  .139698386192D-08  .580000000000D+02
     .136806000000D+06  .400000000000D+01
 4 15  2 23 16  0  0.0 -.775046646595D-05 -.795807864051D-12  .000000000000D+00
     .670000000000D+02 -.417812500000D+02  .543165482165D-08  .683740787748D-01
    -.226311385632D-05  .110463046003D-01  .607594847679D-05  .515372295189D+04
     .144000000000D+06 -.633299350739D-07 -.317374439211D+00  .894069671631D-07
     .939814975912D+00  .255500000000D+03  .105192528013D+01 -.876572227037D-08
    -.148220459691D-09  .100000000000D+01  .183300000000D+04  .000000000000D+00
     .240000000000D+01  .000000000000D+00 -.651925802231D-08  .670000000000D+02
     .136806000000D+06  .400000000000D+01
 6 15  2 23 16  0  0.0  .904821790755D-04  .110276232590D-10  .000000000000D+00
     .810000000000D+02 -.443750000000D+02  .481698636110D-08  .271846631682D+01
    -.231713056564D-05  .328093301505D-03  .643916428089D-05  .515369672585D+04
     .144000000000D+06 -.409781932831D-07 -.305760674902D+00  .316649675369D-07
     .962076778177D+00  .251000000000D+03  .272906213445D+01 -.826034407649D-08
    -.112147528538D-09  .100000000000D+01  .183300000000D+04  .000000000000D+00
     .240000000000D+01  .000000000000D+00  .465661287308D-08  .810000000000D+02
     .136806000000D+06  .400000000000D+01
 7 15  2 23 16  0  0.0  .442655291408D-03  .306954461848D-11  .000000000000D+00
     .210000000000D+02 -.361562500000D+02  .454590364085D-08 -.308888247464D+00
    -.201538205147D-05  .803256884683D-02  .470690429211D-05  .515373201752D+04
     .144000000000D+06  .670552253723D-07  .286288069614D+01  .447034835815D-07
     .971315710032D+00  .292406250000D+03 -.275394938166D+01 -.839356391134D-08
    -.398588031363D-09  .100000000000D+01  .183300000000D+04  .000000000000D+00
     .240000000000D+01  .000000000000D+00 -.111758708954D-07  .210000000000D+02
     .136806000000D+06  .400000000000D+01
 8 15  2 23 16  0  0.0  .179014168680D-04  .341060513165D-12  .000000000000D+00
     .260000000000D+02 -.345312500000D+02  .392623497202D-08  .123061185384D+01
    -.170804560184D-05  .144377183169D-01  .546686351299D-05  .515356372643D+04
     .144000000000D+06 -.707805156708D-07  .296822917356D+01  .165775418282D-06
     .994947707703D+00  .295375000000D+03 -.268910528471D+01 -.805854995667D-08
    -.528593446610D-09  .100000000000D+01  .183300000000D+04  .000000000000D+00
     .340000000000D+01  .630000000000D+02 -.512227416039D-08  .260000000000D+02
     .136806000000D+06  .400000000000D+01
